start=new Date('2022-10-29T00:00:00.000Z').valueOf();
sats=[{"PERIOD":"95.592","CLASSIFICATION_TYPE":"U","MEAN_MOTION":"15.06398906","OBJECT_TYPE":"PAYLOAD","MEAN_ANOMALY":"258.8104","EPOCH":"2022-10-28T18:03:53.322336","ARG_OF_PERICENTER":"101.3031","NORAD_CAT_ID":"44972","EPHEMERIS_TYPE":"0","REV_AT_EPOCH":"15533","RCS_SIZE":"LARGE","REF_FRAME":"TEME","OBJECT_ID":"2020-001BL","ECCENTRICITY":"0.00013020","TLE_LINE2":"2 44972  53.0549  59.0477 0001302 101.3031 258.8104 15.06398906155333","MEAN_MOTION_DDOT":"0.0000000000000","DECAY_DATE":null,"GP_ID":"216405078","BSTAR":"0.00009617500000","INCLINATION":"53.0549","ELEMENT_SET_NO":"999","PERIAPSIS":"546.315","APOAPSIS":"548.119","RA_OF_ASC_NODE":"59.0477","MEAN_MOTION_DOT":"0.00001151","FILE":"3637111","TLE_LINE1":"1 44972U 20001BL  22301.75270049  .00001151  00000-0  96175-4 0  9991","LAUNCH_DATE":"2020-01-07","SEMIMAJOR_AXIS":"6925.352","MEAN_ELEMENT_THEORY":"SGP4","OBJECT_NAME":"STARLINK-1107","CENTER_NAME":"EARTH","COUNTRY_CODE":"US","TIME_SYSTEM":"UTC","SITE":"AFETR"},{"COUNTRY_CODE":"US","SITE":"AFETR","TIME_SYSTEM":"UTC","TLE_LINE1":"1 44973U 20001BM  22301.73057483  .00000586  00000-0  58197-4 0  9998","FILE":"3637111","LAUNCH_DATE":"2020-01-07","APOAPSIS":"548.100","MEAN_MOTION_DOT":"0.00000586","RA_OF_ASC_NODE":"59.1389","CENTER_NAME":"EARTH","OBJECT_NAME":"STARLINK-1115","MEAN_ELEMENT_THEORY":"SGP4","SEMIMAJOR_AXIS":"6925.322","ECCENTRICITY":"0.00013190","MEAN_MOTION_DDOT":"0.0000000000000","TLE_LINE2":"2 44973  53.0557  59.1389 0001319  83.7644 276.3495 15.06408711155320","RCS_SIZE":"LARGE","OBJECT_ID":"2020-001BM","REF_FRAME":"TEME","ELEMENT_SET_NO":"999","PERIAPSIS":"546.273","BSTAR":"0.00005819700000","INCLINATION":"53.0557","GP_ID":"216405330","DECAY_DATE":null,"MEAN_MOTION":"15.06408711","CLASSIFICATION_TYPE":"U","OBJECT_TYPE":"PAYLOAD","PERIOD":"95.592","EPHEMERIS_TYPE":"0","REV_AT_EPOCH":"15532","EPOCH":"2022-10-28T17:32:01.665312","MEAN_ANOMALY":"276.3495","ARG_OF_PERICENTER":"83.7644","NORAD_CAT_ID":"44973"},{"COUNTRY_CODE":"US","SITE":"AFETR","TIME_SYSTEM":"UTC","TLE_LINE1":"1 45044U 20006A   22301.63843477 -.00000250  00000-0  21219-5 0  9993","FILE":"3637111","LAUNCH_DATE":"2020-01-29","APOAPSIS":"548.191","MEAN_MOTION_DOT":"-0.00000250","RA_OF_ASC_NODE":"19.5522","CENTER_NAME":"EARTH","OBJECT_NAME":"STARLINK-1132","MEAN_ELEMENT_THEORY":"SGP4","SEMIMAJOR_AXIS":"6925.306","ECCENTRICITY":"0.00014720","MEAN_MOTION_DDOT":"0.0000000000000","TLE_LINE2":"2 45044  53.0557  19.5522 0001472  65.5263 294.5879 15.06413780151645","RCS_SIZE":"LARGE","OBJECT_ID":"2020-006A","REF_FRAME":"TEME","ELEMENT_SET_NO":"999","PERIAPSIS":"546.152","INCLINATION":"53.0557","BSTAR":"0.00000212190000","DECAY_DATE":null,"GP_ID":"216404337","CLASSIFICATION_TYPE":"U","MEAN_MOTION":"15.06413780","OBJECT_TYPE":"PAYLOAD","PERIOD":"95.591","EPHEMERIS_TYPE":"0","REV_AT_EPOCH":"15164","EPOCH":"2022-10-28T15:19:20.764128","NORAD_CAT_ID":"45044","MEAN_ANOMALY":"294.5879","ARG_OF_PERICENTER":"65.5263"},{"COUNTRY_CODE":"US","TIME_SYSTEM":"UTC","SITE":"AFETR","FILE":"3637111","TLE_LINE1":"1 45045U 20006B   22301.69093501  .00005116  00000-0  36185-3 0  9996","LAUNCH_DATE":"2020-01-29","APOAPSIS":"548.061","RA_OF_ASC_NODE":"39.3086","MEAN_MOTION_DOT":"0.00005116","CENTER_NAME":"EARTH","SEMIMAJOR_AXIS":"6925.269","OBJECT_NAME":"STARLINK-1120","MEAN_ELEMENT_THEORY":"SGP4","ECCENTRICITY":"0.00013390","TLE_LINE2":"2 45045  53.0559  39.3086 0001339  65.3288 294.7840 15.06426051151375","MEAN_MOTION_DDOT":"0.0000000000000","RCS_SIZE":"LARGE","REF_FRAME":"TEME","OBJECT_ID":"2020-006B","BSTAR":"0.00036185000000","INCLINATION":"53.0559","ELEMENT_SET_NO":"999","PERIAPSIS":"546.206","DECAY_DATE":null,"GP_ID":"216404587","MEAN_MOTION":"15.06426051","CLASSIFICATION_TYPE":"U","OBJECT_TYPE":"PAYLOAD","PERIOD":"95.590","EPHEMERIS_TYPE":"0","REV_AT_EPOCH":"15137","NORAD_CAT_ID":"45045","ARG_OF_PERICENTER":"65.3288","EPOCH":"2022-10-28T16:34:56.784864","MEAN_ANOMALY":"294.7840"},{"SEMIMAJOR_AXIS":"6880.479","MEAN_ELEMENT_THEORY":"SGP4","OBJECT_NAME":"STARLINK-1129","CENTER_NAME":"EARTH","APOAPSIS":"504.908","RA_OF_ASC_NODE":"17.2183","MEAN_MOTION_DOT":"0.00037972","FILE":"3636776","TLE_LINE1":"1 45046U 20006C   22301.47530642  .00037972  00000-0  16885-2 0  9994","LAUNCH_DATE":"2020-01-29","TIME_SYSTEM":"UTC","SITE":"AFETR","COUNTRY_CODE":"US","ARG_OF_PERICENTER":"15.7179","NORAD_CAT_ID":"45046","MEAN_ANOMALY":"344.3930","EPOCH":"2022-10-28T11:24:26.474688","REV_AT_EPOCH":"15161","EPHEMERIS_TYPE":"0","PERIOD":"94.665","MEAN_MOTION":"15.21159578","CLASSIFICATION_TYPE":"U","OBJECT_TYPE":"PAYLOAD","DECAY_DATE":null,"GP_ID":"216371836","INCLINATION":"52.9898","BSTAR":"0.00168850000000","PERIAPSIS":"499.779","ELEMENT_SET_NO":"999","RCS_SIZE":"LARGE","REF_FRAME":"TEME","OBJECT_ID":"2020-006C","ECCENTRICITY":"0.00037270","TLE_LINE2":"2 45046  52.9898  17.2183 0003727  15.7179 344.3930 15.21159578151617","MEAN_MOTION_DDOT":"0.0000000000000"},{"OBJECT_ID":"2020-006D","REF_FRAME":"TEME","RCS_SIZE":"LARGE","TLE_LINE2":"2 45047  53.0563  39.3082 0001387  76.7512 283.3632 15.06419767151376","MEAN_MOTION_DDOT":"0.0000000000000","ECCENTRICITY":"0.00013870","DECAY_DATE":null,"GP_ID":"216405586","PERIAPSIS":"546.192","ELEMENT_SET_NO":"999","BSTAR":"0.00043716000000","INCLINATION":"53.0563","PERIOD":"95.591","OBJECT_TYPE":"PAYLOAD","MEAN_MOTION":"15.06419767","CLASSIFICATION_TYPE":"U","ARG_OF_PERICENTER":"76.7512","MEAN_ANOMALY":"283.3632","EPOCH":"2022-10-28T16:41:36.556800","NORAD_CAT_ID":"45047","EPHEMERIS_TYPE":"0","REV_AT_EPOCH":"15137","COUNTRY_CODE":"US","SITE":"AFETR","TIME_SYSTEM":"UTC","MEAN_MOTION_DOT":"0.00006239","RA_OF_ASC_NODE":"39.3082","APOAPSIS":"548.114","LAUNCH_DATE":"2020-01-29","TLE_LINE1":"1 45047U 20006D   22301.69556200  .00006239  00000-0  43716-3 0  9993","FILE":"3637111","MEAN_ELEMENT_THEORY":"SGP4","OBJECT_NAME":"STARLINK-1131","SEMIMAJOR_AXIS":"6925.288","CENTER_NAME":"EARTH"},{"CENTER_NAME":"EARTH","OBJECT_NAME":"STARLINK-1134","MEAN_ELEMENT_THEORY":"SGP4","SEMIMAJOR_AXIS":"6925.324","TLE_LINE1":"1 45048U 20006E   22301.70293514  .00001881  00000-0  14512-3 0  9992","FILE":"3637111","LAUNCH_DATE":"2020-01-29","APOAPSIS":"548.169","MEAN_MOTION_DOT":"0.00001881","RA_OF_ASC_NODE":"39.2542","SITE":"AFETR","TIME_SYSTEM":"UTC","COUNTRY_CODE":"US","EPHEMERIS_TYPE":"0","REV_AT_EPOCH":"15137","ARG_OF_PERICENTER":"98.8700","EPOCH":"2022-10-28T16:52:13.596096","MEAN_ANOMALY":"261.2449","NORAD_CAT_ID":"45048","CLASSIFICATION_TYPE":"U","MEAN_MOTION":"15.06407869","OBJECT_TYPE":"PAYLOAD","PERIOD":"95.592","ELEMENT_SET_NO":"999","PERIAPSIS":"546.210","INCLINATION":"53.0564","BSTAR":"0.00014512000000","GP_ID":"216404836","DECAY_DATE":null,"ECCENTRICITY":"0.00014140","MEAN_MOTION_DDOT":"0.0000000000000","TLE_LINE2":"2 45048  53.0564  39.2542 0001414  98.8700 261.2449 15.06407869151374","RCS_SIZE":"LARGE","OBJECT_ID":"2020-006E","REF_FRAME":"TEME"},{"ELEMENT_SET_NO":"999","PERIAPSIS":"526.536","BSTAR":"0.00138410000000","INCLINATION":"53.0573","DECAY_DATE":null,"GP_ID":"216405085","ECCENTRICITY":"0.00025250","TLE_LINE2":"2 45049  53.0573  33.6575 0002525  50.4210 309.7004 15.12598879151456","MEAN_MOTION_DDOT":"0.0000000000000","RCS_SIZE":"LARGE","OBJECT_ID":"2020-006F","REF_FRAME":"TEME","REV_AT_EPOCH":"15145","EPHEMERIS_TYPE":"0","ARG_OF_PERICENTER":"50.4210","EPOCH":"2022-10-28T16:43:59.578176","MEAN_ANOMALY":"309.7004","NORAD_CAT_ID":"45049","CLASSIFICATION_TYPE":"U","MEAN_MOTION":"15.12598879","OBJECT_TYPE":"PAYLOAD","PERIOD":"95.200","SITE":"AFETR","TIME_SYSTEM":"UTC","COUNTRY_CODE":"US","CENTER_NAME":"EARTH","OBJECT_NAME":"STARLINK-1135","MEAN_ELEMENT_THEORY":"SGP4","SEMIMAJOR_AXIS":"6906.415","TLE_LINE1":"1 45049U 20006F   22301.69721734  .00024228  00000-0  13841-2 0  9994","FILE":"3637111","LAUNCH_DATE":"2020-01-29","APOAPSIS":"530.024","MEAN_MOTION_DOT":"0.00024228","RA_OF_ASC_NODE":"33.6575"},{"OBJECT_TYPE":"PAYLOAD","MEAN_MOTION":"15.06408212","CLASSIFICATION_TYPE":"U","PERIOD":"95.592","REV_AT_EPOCH":"15133","EPHEMERIS_TYPE":"0","ARG_OF_PERICENTER":"83.9936","EPOCH":"2022-10-28T10:46:00.206400","NORAD_CAT_ID":"45050","MEAN_ANOMALY":"276.1204","MEAN_MOTION_DDOT":"0.0000000000000","TLE_LINE2":"2 45050  53.0573  40.3969 0001325  83.9936 276.1204 15.06408212151333","ECCENTRICITY":"0.00013250","REF_FRAME":"TEME","OBJECT_ID":"2020-006G","RCS_SIZE":"LARGE","BSTAR":"0.00005454300000","INCLINATION":"53.0573","PERIAPSIS":"546.271","ELEMENT_SET_NO":"999","GP_ID":"216372337","DECAY_DATE":null,"LAUNCH_DATE":"2020-01-29","FILE":"3636776","TLE_LINE1":"1 45050U 20006G   22301.44861350  .00000531  00000-0  54543-4 0  9995","RA_OF_ASC_NODE":"40.3969","MEAN_MOTION_DOT":"0.00000531","APOAPSIS":"548.106","CENTER_NAME":"EARTH","SEMIMAJOR_AXIS":"6925.323","OBJECT_NAME":"STARLINK-1140","MEAN_ELEMENT_THEORY":"SGP4","COUNTRY_CODE":"US","TIME_SYSTEM":"UTC","SITE":"AFETR"},{"FILE":"3637111","TLE_LINE1":"1 45051U 20006H   22301.70117021  .00032241  00000-0  15681-2 0  9995","LAUNCH_DATE":"2020-01-29","APOAPSIS":"513.245","RA_OF_ASC_NODE":"27.2350","MEAN_MOTION_DOT":"0.00032241","CENTER_NAME":"EARTH","SEMIMAJOR_AXIS":"6889.579","MEAN_ELEMENT_THEORY":"SGP4","OBJECT_NAME":"STARLINK-1141","COUNTRY_CODE":"US","TIME_SYSTEM":"UTC","SITE":"AFETR","MEAN_MOTION":"15.18146718","CLASSIFICATION_TYPE":"U","OBJECT_TYPE":"PAYLOAD","PERIOD":"94.852","EPHEMERIS_TYPE":"0","REV_AT_EPOCH":"15154","ARG_OF_PERICENTER":"9.2902","MEAN_ANOMALY":"350.8140","EPOCH":"2022-10-28T16:49:41.106144","NORAD_CAT_ID":"45051","ECCENTRICITY":"0.00026140","MEAN_MOTION_DDOT":"0.0000000000000","TLE_LINE2":"2 45051  53.0480  27.2350 0002614   9.2902 350.8140 15.18146718151540","RCS_SIZE":"LARGE","REF_FRAME":"TEME","OBJECT_ID":"2020-006H","BSTAR":"0.00156810000000","INCLINATION":"53.0480","PERIAPSIS":"509.643","ELEMENT_SET_NO":"999","GP_ID":"216406086","DECAY_DATE":null}];
